{
    "links": {
        "self": "http://www.neowsapp.com/rest/v1/neo/3403151?api_key=iIulBulltgU6a56xZRHN4H3l9WmuAYTsLGpBGhQ2"
    },
    "id": "3403151",
    "neo_reference_id": "3403151",
    "name": "(2008 DD)",
    "designation": "2008 DD",
    "nasa_jpl_url": "http://ssd.jpl.nasa.gov/sbdb.cgi?sstr=3403151",
    "absolute_magnitude_h": 20.4,
    "estimated_diameter": {
        "kilometers": {
            "estimated_diameter_min": 0.2210828104,
            "estimated_diameter_max": 0.4943561926
        },
        "meters": {
            "estimated_diameter_min": 221.0828103591,
            "estimated_diameter_max": 494.3561926196
        },
        "miles": {
            "estimated_diameter_min": 0.137374447,
            "estimated_diameter_max": 0.3071786018
        },
        "feet": {
            "estimated_diameter_min": 725.3373275385,
            "estimated_diameter_max": 1621.9035709942
        }
    },
    "is_potentially_hazardous_asteroid": true,
    "close_approach_data": [
        {
            "close_approach_date": "2008-03-04",
            "close_approach_date_full": "2008-Mar-04 23:26",
            "epoch_date_close_approach": 1204673160000,
            "relative_velocity": {
                "kilometers_per_second": "11.9869109785",
                "kilometers_per_hour": "43152.8795227397",
                "miles_per_hour": "26813.5211678934"
            },
            "miss_distance": {
                "astronomical": "0.1494649048",
                "lunar": "58.1418479672",
                "kilometers": "22359631.397832776",
                "miles": "13893630.6943972688"
            },
            "orbiting_body": "Earth"
        }
    ],
    "orbital_data": {
        "orbit_id": "13",
        "orbit_determination_date": "2017-04-06 09:04:17",
        "first_observation_date": "2008-02-18",
        "last_observation_date": "2008-04-02",
        "data_arc_in_days": 44,
        "observations_used": 49,
        "orbit_uncertainty": "7",
        "minimum_orbit_intersection": ".0480416",
        "jupiter_tisserand_invariant": "3.723",
        "epoch_osculation": "2459000.5",
        "eccentricity": ".4638548461170895",
        "semi_major_axis": "1.94257358377051",
        "inclination": "15.34979193512993",
        "ascending_node_longitude": "355.5163798793151",
        "orbital_period": "988.9279348638926",
        "perihelion_distance": "1.041501412999517",
        "perihelion_argument": "186.7648005030992",
        "aphelion_distance": "2.843645754541503",
        "perihelion_time": "2459484.739154735199",
        "mean_anomaly": "183.7221443960277",
        "mean_motion": ".3640305701846184",
        "equinox": "J2000",
        "orbit_class": {
            "orbit_class_type": "AMO",
            "orbit_class_description": "Near-Earth asteroid orbits similar to that of 1221 Amor",
            "orbit_class_range": "1.017 AU < q (perihelion) < 1.3 AU"
        }
    },
    "is_sentry_object": false
}